{
  "norad_id": 66226,
  "name": "STARLINK-34466",
  "history": [
    {
      "epoch": "2026-03-28T20:24:44.226432Z",
      "apogee_km": 476.1884628390617,
      "perigee_km": 474.2197720696622,
      "latitude_deg": -3.6760145017187583e-06,
      "longitude_deg": 8.420581792176472,
      "height_km": 475.94091864429816,
      "semi_major_axis_km": 6853.341117454362,
      "eccentricity": 0.00014363,
      "inclination_deg": 53.1597,
      "raan_deg": 140.8699,
      "arg_perigee_deg": 80.5838,
      "mean_anomaly_deg": 279.5325,
      "mean_motion_rev_day": 15.30203668
    }
  ]
}